STARLINK-36652
1 67839U 26033U   26109.10179350  .00012925  00000+0  47807-3 0  9998
2 67839  43.0015  38.8994 0000826 266.7578  93.3179 15.27600791 10850
STARLINK-36651
1 67840U 26033V   26109.49025234  .00009254  00000+0  34522-3 0  9994
2 67840  43.0017  36.6477 0000578 342.5541  17.5290 15.27593130 10910
STARLINK-36656
1 67841U 26033W   26109.48673232  .00009667  00000+0  35121-3 0  9995
2 67841  43.0035  36.6237 0000019 308.5496  51.5355 15.28425961 10913
STARLINK-36653
1 67842U 26033X   26109.47997457  .00026739  00000+0  97651-3 0  9998
2 67842  43.0009  36.5697 0002122 281.4343  78.6271 15.27618739 10914
STARLINK-36589
1 67843U 26033Y   26109.92997177  .00008272  00000+0  30982-3 0  9994
2 67843  42.9985  33.9277 0001340 267.3310  92.7388 15.27573858 10984
STARLINK-36598
1 67844U 26033Z   26109.84417964  .00010081  00000+0  37545-3 0  9990
2 67844  43.0036  35.0175 0000952 257.6527 102.4218 15.27570405 10968
STARLINK-36606
1 67845U 26033AA  26109.07739375  .00025788  00000+0  94318-3 0  9990
2 67845  43.0021  38.7037 0000443 180.1330 179.9521 15.27586583 10855
STARLINK-36658
1 67846U 26033AB  26109.50953185  .00006874  00000+0  25900-3 0  9992
2 67846  43.0093  36.8008 0001032 272.9285  87.1448 15.27593043 10910
STARLINK-36618
1 67847U 26033AC  26108.13695705  .00041737  00000+0  71283-3 0  9994
2 67847  42.9997  31.2465 0002383 261.2398  98.8192 15.50602281 10853
STARLINK-36660
1 67848U 26033AD  26109.50697112  .00011178  00000+0  41504-3 0  9990
2 67848  42.9991  36.7789 0001134  74.3940 285.7037 15.27585393 10916
STARLINK-36602
1 67849U 26033AE  26109.84803283  .00009720  00000+0  36243-3 0  9990
2 67849  43.0045  35.0468 0001459 249.2378 110.8317 15.27565101 10962
STARLINK-36840
1 67850U 26034A   26109.93102472  .00023825  00000+0  79206-3 0  9993
2 67850  53.1638  12.4422 0002024 246.6398 113.4391 15.31083172 10357
STARLINK-36348
1 67851U 26034B   26109.45704486  .00007522  00000+0  26585-3 0  9992
2 67851  53.1617  15.1748 0001351 102.2774 257.8378 15.30197949 10279
STARLINK-36276
1 67852U 26034C   26109.45528377  .00008477  00000+0  29033-3 0  9997
2 67852  53.1650  15.1640 0001480 108.6352 251.4810 15.31052192 10275
STARLINK-36785
1 67853U 26034D   26109.43170935  .00007477  00000+0  26424-3 0  9999
2 67853  53.1568  14.9882 0001474  53.0586 307.0550 15.30207923 10276
STARLINK-36608
1 67854U 26034E   26109.94051766  .00008947  00000+0  31394-3 0  9991
2 67854  53.1606  12.4747 0001212  80.7226 279.3912 15.30190220 10343
STARLINK-36838
1 67855U 26034F   26109.93733967 -.00075023  00000+0 -25422-2 0  9996
2 67855  53.1607  12.4567 0000876  77.2895 282.8203 15.30253790 10358
STARLINK-36843
1 67856U 26034G   26109.92787491  .00050692  00000+0  17119-2 0  9994
2 67856  53.1613  12.4130 0001344 112.9677 247.1466 15.30202283 10354
STARLINK-36828
1 67857U 26034H   26109.14722835  .00009956  00000+0  34774-3 0  9994
2 67857  53.1603  16.0514 0001179 110.8148 249.2980 15.30208460 10230
STARLINK-36837
1 67858U 26034J   26109.93811488  .00013990  00000+0  47133-3 0  9991
2 67858  53.1615  12.4770 0000995  88.0128 272.0987 15.31033616 10351
STARLINK-36393
1 67859U 26034K   26109.13773323  .00029681  00000+0  10088-2 0  9991
2 67859  53.1637  15.9952 0000709  96.2877 263.8205 15.30244885 10230
STARLINK-35873
1 67860U 26034L   26109.45914212  .00037028  00000+0  12550-2 0  9992
2 67860  53.1603  15.1629 0001263 268.2436  91.8420 15.30228405 10302
STARLINK-36325
1 67861U 26034M   26109.45598256  .00010987  00000+0  38270-3 0  9992
2 67861  53.1627  15.1429 0001372  81.9080 278.2076 15.30185447 10275
STARLINK-36332
1 67862U 26034N   26109.45281957  .00007617  00000+0  26905-3 0  9998
2 67862  53.1626  15.1214 0001563 100.9983 259.1194 15.30199962 10279
STARLINK-36835
1 67863U 26034P   26109.44965513  .00021072  00000+0  72194-3 0  9997
2 67863  53.1583  15.1005 0001732  89.9418 270.1781 15.30183292 10271
STARLINK-36831
1 67864U 26034Q   26109.44648792  .00010463  00000+0  36484-3 0  9999
2 67864  53.1647  15.0788 0001477  89.8445 270.2725 15.30205575 10273
STARLINK-36738
1 67865U 26034R   26109.44015507  .00003114  00000+0  11724-3 0  9997
2 67865  53.1612  15.0398 0001038 105.7203 254.3913 15.30195872 10276
STARLINK-36780
1 67866U 26034S   26109.95951799  .00016648  00000+0  57312-3 0  9995
2 67866  53.1613  12.5917 0003186  79.2193 280.9167 15.30189581 10351
STARLINK-36761
1 67867U 26034T   26109.43382297  .00007463  00000+0  26384-3 0  9990
2 67867  53.1604  14.9965 0002086  73.5681 286.5549 15.30201710 10274
STARLINK-36762
1 67868U 26034U   26109.43012368  .00011069  00000+0  37542-3 0  9995
2 67868  53.1588  14.9754 0000930  45.5747 314.5331 15.31044765 10277
STARLINK-36779
1 67869U 26034V   26109.16339682  .00031822  00000+0  10534-2 0  9997
2 67869  53.1600  16.1569 0000703  65.4408 294.6666 15.31065528 10239
STARLINK-36770
1 67870U 26034W   26109.16095073  .00033070  00000+0  11229-2 0  9991
2 67870  53.1606  16.1416 0000859  74.7147 285.3949 15.30224471 10237
STARLINK-36769
1 67871U 26034X   26109.94262828  .00020399  00000+0  69910-3 0  9993
2 67871  53.1589  12.4786 0001064  43.3039 316.8045 15.30193201 10354
STARLINK-36786
1 67872U 26034Y   26109.93629843  .00022406  00000+0  76651-3 0  9998
2 67872  53.1614  12.4436 0001453  77.2409 282.8754 15.30192995 10353
STARLINK-36783
1 67873U 26034Z   26109.03209794  .00017219  00000+0  57669-3 0  9993
2 67873  53.1616  16.7577 0001499  88.5750 271.5423 15.31058445 10218
STARLINK-36730
1 67874U 26034AA  26109.93995124  .00015559  00000+0  52277-3 0  9997
2 67874  53.1611  12.4686 0001034  86.7607 273.3512 15.31032821 10358
STARLINK-36727
1 67875U 26034AB  26109.98894601  .00010757  00000+0  37485-3 0  9990
2 67875  53.1619  12.0580 0001395 105.3764 254.7391 15.30195787 10367
STARLINK-36743
1 67876U 26034AC  26109.45492827  .00018293  00000+0  62845-3 0  9998
2 67876  53.1595  15.1313 0001234  93.5757 266.5385 15.30188479 10275
STARLINK-36784
1 67877U 26034AD  26109.45365993  .00019717  00000+0  65910-3 0  9990
2 67877  53.1595  15.1403 0001235  94.2073 265.9070 15.31023389 10279
STARLINK-36689
1 67878U 26034AE  26109.44543291  .00008981  00000+0  31500-3 0  9998
2 67878  53.1633  15.0676 0001891  87.0660 273.0558 15.30199782 10275
STARLINK-36818
1 67879U 26035A   26109.91670139 -.00042567  00000+0 -13230-2 0  9993
2 67879  97.2853  43.8740 0002600  90.8706 213.3971 15.33457442  5949
STARLINK-36821
1 67880U 26035B   26109.91670139 -.00043535  00000+0 -13532-2 0  9996
2 67880  97.2853  43.8805 0002198  93.1876 226.0773 15.33460375  5949
STARLINK-36808
1 67881U 26035C   26109.91670139 -.00043528  00000+0 -13530-2 0  9997
2 67881  97.2851  43.9835 0002404  89.3812 109.8895 15.33458568  6012
STARLINK-36817
1 67882U 26035D   26109.91670139 -.00039239  00000+0 -12189-2 0  9991
2 67882  97.2850  43.9390 0002099 107.9465 346.3255 15.33456049  6008
STARLINK-36856
1 67883U 26035E   26109.91670139 -.00022699  00000+0 -70347-3 0  9995
2 67883  97.2848  43.9342 0001778  90.1203 349.1079 15.33417477  6039
STARLINK-36842
1 67884U 26035F   26109.91670139 -.00485393  00000+0 -15511-1 0  9990
2 67884  97.2874  43.8864 0001175 101.3980 231.5560 15.34461324  6024
STARLINK-36826
1 67885U 26035G   26109.91670139 -.00038449  00000+0 -11630-2 0  9996
2 67885  97.2848  43.8954 0002258 105.4349 249.5548 15.34294832  6037
STARLINK-36390
1 67886U 26035H   26109.91670139 -.00024115  00000+0 -74678-3 0  9994
2 67886  97.2851  43.8941 0001541  81.2549 267.9886 15.33454717  6022
STARLINK-36368
1 67887U 26035J   26106.38078791 -.00058467  00000+0 -10961-2 0  9990
2 67887  97.2858  40.4415 0002601 340.1248  19.9901 15.48796271  9767
STARLINK-36801
1 67888U 26035K   26109.91670139 -.00040018  00000+0 -12433-2 0  9996
2 67888  97.2853  43.9556 0001967  96.5414  42.7351 15.33455502  5849
STARLINK-36372
1 67889U 26035L   26109.91670139 -.01244512  00000+0 -41281-1 0  9995
2 67889  97.2846  43.9423 0002689  96.1276  12.4129 15.34433793  6004
STARLINK-36363
1 67890U 26035M   26109.91670139 -.00040001  00000+0 -12427-2 0  9994
2 67890  97.2849  43.9067 0001971  82.4114 296.8586 15.33458112  6034
STARLINK-36816
1 67891U 26035N   26109.73230542  .00024050  00000+0  74544-3 0  9998
2 67891  97.2863  42.7776 0001758 103.8589 256.2850 15.33421213 10213
STARLINK-36813
1 67892U 26035P   26109.91670139 -.00045169  00000+0 -14043-2 0  9992
2 67892  97.2853  44.0236 0001974 104.1635 185.0956 15.33462818  5918
STARLINK-36803
1 67893U 26035Q   26109.91670139 -.01927977  00000+0 -47421-1 0  9995
2 67893  97.2854  43.9536 0001415  84.9656  36.0862 15.43904352  5915
STARLINK-36846
1 67894U 26035R   26109.91670139 -.00040606  00000+0 -12619-2 0  9992
2 67894  97.2847  43.9004 0001615  89.0607 275.2126 15.33452783  6031
STARLINK-36866
1 67895U 26035S   26109.91670139 -.00036427  00000+0 -11309-2 0  9994
2 67895  97.2849  43.9265 0002124 106.7486 317.5052 15.33458828  6035
STARLINK-36877
1 67896U 26035T   26109.91670139 -.00045324  00000+0 -14092-2 0  9993
2 67896  97.2852  43.9905 0002371  87.6774 126.5947 15.33459059  6029
STARLINK-36870
1 67897U 26035U   26109.91670139 -.00045897  00000+0 -14274-2 0  9991
2 67897  97.2851  43.9776 0001728 103.0170  81.2588 15.33456586  6012
STARLINK-36810
1 67898U 26035V   26109.91670139 -.00040800  00000+0 -12679-2 0  9998
2 67898  97.2849  43.9517 0001486  97.6432  26.6397 15.33453529  6007
STARLINK-36878
1 67899U 26035W   26109.91670139 -.01890161  00000+0 -52585-1 0  9992
2 67899  97.2855  43.9993 0002116  86.1892 134.6483 15.40159713  5918
STARLINK-36361
1 67900U 26035X   26109.91670139 -.01898219  00000+0 -52311-1 0  9994
2 67900  97.2856  44.0065 0001929  89.3075 149.0166 15.40461807  5911
STARLINK-36336
1 67901U 26035Y   26109.26580209  .00102099  00000+0  18507-2 0  9992
2 67901  97.2863  43.2513 0000617 120.8020 239.3292 15.49251347 10209
STARLINK-36876
1 67902U 26035Z   26109.91670139 -.00045938  00000+0 -13912-2 0  9992
2 67902  97.2852  43.9943 0001908 102.2218 119.7230 15.34298872  6025
